FENGYUN 1C DEB          
1 30836U 99025AVW 17345.26807154  .00000244  00000-0  16709-3 0  9994
2 30836  99.0663   4.4868 0027243 195.7826 164.2496 14.08914875554723
